{"type": "Feature", "properties": {"name": "Lac d'Annecy"}, "geometry": {"type": "Polygon", "coordinates": [[[6.127647, 45.9009584], [6.1282119, 45.90022], [6.1320722, 45.8999027], [6.1325769, 45.8991191], [6.1313617, 45.8981127], [6.1332309, 45.8976863], [6.1354353, 45.8958477], [6.1340255, 45.8956096], [6.134857, 45.8943226], [6.1357568, 45.8943073], [6.1407025, 45.8908734], [6.1429303, 45.8905115], [6.1435415, 45.8899584], [6.1437582, 45.8879682], [6.1424855, 45.8853282], [6.1422889, 45.8825305], [6.1429895, 45.8818127], [6.1432423, 45.8745937], [6.14419, 45.8714934], [6.1431438, 45.8690075], [6.1435491, 45.8680068], [6.14451, 45.8673023], [6.1440283, 45.8651151], [6.1440866, 45.863895], [6.1446425, 45.8637292], [6.1442729, 45.8637063], [6.1444333, 45.8624946], [6.1432381, 45.8604844], [6.1440933, 45.8599086], [6.1456502, 45.8603617], [6.1451655, 45.8599812], [6.1456583, 45.8597685], [6.1442038, 45.8594817], [6.1440251, 45.8584434], [6.146514, 45.8569314], [6.1469642, 45.8558316], [6.1468639, 45.8541785], [6.1483326, 45.8535561], [6.149669, 45.8537107], [6.1509198, 45.8523515], [6.1528768, 45.8522835], [6.1538572, 45.8505653], [6.1536983, 45.8475868], [6.1566466, 45.8458424], [6.1595417, 45.8462022], [6.1593706, 45.8448034], [6.1631858, 45.8443585], [6.1642237, 45.8453615], [6.1650574, 45.8439957], [6.1656861, 45.8438795], [6.1673595, 45.8442828], [6.1727005, 45.8439591], [6.1741977, 45.8444912], [6.1754939, 45.8421917], [6.1750622, 45.8419826], [6.1752505, 45.8410071], [6.1770287, 45.8401506], [6.1779594, 45.83828], [6.179379, 45.8372958], [6.1797939, 45.8361866], [6.1836547, 45.8342079], [6.1841515, 45.8331297], [6.1858038, 45.8321781], [6.186297, 45.8311577], [6.1878589, 45.8303776], [6.1903717, 45.8305439], [6.190822, 45.8302382], [6.1906473, 45.8298634], [6.1938887, 45.828154], [6.1980526, 45.8280105], [6.2003315, 45.828636], [6.2017554, 45.8280801], [6.2061529, 45.8303598], [6.205451, 45.8319705], [6.2062609, 45.8319979], [6.2071666, 45.8269782], [6.2081706, 45.8262337], [6.2089575, 45.8235824], [6.2086999, 45.8227271], [6.2071969, 45.8214285], [6.2069159, 45.8201986], [6.2080533, 45.8179703], [6.2085647, 45.8155003], [6.2107806, 45.8129546], [6.2103161, 45.8118877], [6.2124896, 45.8027565], [6.2131807, 45.7958167], [6.2139507, 45.7941276], [6.2148932, 45.7938667], [6.2152454, 45.792928], [6.2199421, 45.7930796], [6.2210928, 45.7938178], [6.2213691, 45.7946641], [6.2222207, 45.7943097], [6.2236337, 45.7946544], [6.2253811, 45.7969169], [6.2273947, 45.7968658], [6.2302068, 45.7979898], [6.2304905, 45.7988175], [6.2290576, 45.8001658], [6.2289245, 45.8012802], [6.2321529, 45.8058482], [6.2320774, 45.8072719], [6.2305422, 45.8126536], [6.2306261, 45.8139192], [6.2287623, 45.8160028], [6.2291767, 45.8178209], [6.2284229, 45.819667], [6.2266912, 45.8214523], [6.2268709, 45.8228576], [6.2232956, 45.8233959], [6.2219012, 45.8231723], [6.2198496, 45.8240123], [6.2181212, 45.8279514], [6.2197797, 45.830738], [6.2196251, 45.8319115], [6.2171398, 45.8336416], [6.2167529, 45.8363297], [6.21407, 45.8367098], [6.2102896, 45.8387869], [6.2099609, 45.8395536], [6.2107074, 45.8396919], [6.2105467, 45.8403095], [6.2111257, 45.8410123], [6.2106871, 45.8415995], [6.2062672, 45.8420702], [6.2020496, 45.840508], [6.1999701, 45.8403565], [6.1930472, 45.8416513], [6.1904397, 45.8424797], [6.1888672, 45.8435071], [6.1889248, 45.8448975], [6.1884045, 45.8456115], [6.1891435, 45.8485567], [6.1874178, 45.8528607], [6.1885541, 45.8557852], [6.187256, 45.8579965], [6.1864732, 45.8587546], [6.1855363, 45.858874], [6.1847954, 45.8603557], [6.18622, 45.8643532], [6.1748357, 45.8783537], [6.1743193, 45.8792408], [6.1748737, 45.8799221], [6.1747632, 45.881078], [6.1713144, 45.8892366], [6.1684524, 45.8904149], [6.1664467, 45.8919722], [6.166183, 45.8941036], [6.1616155, 45.89924], [6.1590395, 45.9047824], [6.1558471, 45.9058508], [6.1518019, 45.9052664], [6.151374, 45.9044062], [6.150658, 45.9040638], [6.1508873, 45.9043415], [6.1504142, 45.9046609], [6.1468477, 45.9042256], [6.1450786, 45.9023371], [6.1435995, 45.9026013], [6.1437077, 45.9015443], [6.1424427, 45.9026716], [6.1418587, 45.9026754], [6.1421384, 45.9030353], [6.1411434, 45.9032887], [6.1406347, 45.9044911], [6.1359976, 45.9032673], [6.1345193, 45.9017592], [6.1325251, 45.9011453], [6.1316801, 45.9003481], [6.1285245, 45.9003978], [6.127647, 45.9009584]], [[6.133256, 45.8989888], [6.1331622, 45.8993253], [6.1334613, 45.8992747], [6.133256, 45.8989888]], [[6.1498516, 45.9038445], [6.1504665, 45.9041256], [6.1505571, 45.9040433], [6.1498516, 45.9038445]], [[6.1516503, 45.9043296], [6.1521345, 45.90444], [6.1522436, 45.9043808], [6.1516503, 45.9043296]], [[6.1741752, 45.844629], [6.1740737, 45.8447251], [6.174183, 45.8447784], [6.1741752, 45.844629]]]}}