{"type": "Feature", "properties": {"distance_m": 9930.2, "duration_s": 766.1}, "geometry": {"coordinates": [[6.013567, 45.797149], [6.013519, 45.797114], [6.013348, 45.79714], [6.013111, 45.797176], [6.01298, 45.796844], [6.012952, 45.796774], [6.012795, 45.796417], [6.012783, 45.796315], [6.01268, 45.795594], [6.01242, 45.795139], [6.012191, 45.794737], [6.012111, 45.794598], [6.012093, 45.794567], [6.011176, 45.793455], [6.011183, 45.793369], [6.0112, 45.793316], [6.011211, 45.793227], [6.011285, 45.792934], [6.011555, 45.791896], [6.011643, 45.791556], [6.011649, 45.791202], [6.011566, 45.790724], [6.011558, 45.790514], [6.011707, 45.789984], [6.01182, 45.789586], [6.011854, 45.789463], [6.012642, 45.786908], [6.012809, 45.786574], [6.01299, 45.786385], [6.013111, 45.786288], [6.013268, 45.786185], [6.014077, 45.785747], [6.01545, 45.785036], [6.015699, 45.784848], [6.015798, 45.784746], [6.015836, 45.784696], [6.01584, 45.784689], [6.015896, 45.784565], [6.015921, 45.784451], [6.015941, 45.784326], [6.015948, 45.784041], [6.015987, 45.782465], [6.015986, 45.782236], [6.015974, 45.782139], [6.015958, 45.782044], [6.015925, 45.781942], [6.01584, 45.781733], [6.01571, 45.781417], [6.015252, 45.780302], [6.015216, 45.780154], [6.01522, 45.780017], [6.015239, 45.779953], [6.015259, 45.779882], [6.015363, 45.779709], [6.016297, 45.77891], [6.016569, 45.778687], [6.016672, 45.77858], [6.016751, 45.778466], [6.016865, 45.778131], [6.016904, 45.778045], [6.016976, 45.777949], [6.01705, 45.777873], [6.017129, 45.777803], [6.017196, 45.777753], [6.017252, 45.777724], [6.017348, 45.77768], [6.01744, 45.777644], [6.017542, 45.777609], [6.017629, 45.777586], [6.017728, 45.777568], [6.01783, 45.777558], [6.017914, 45.777554], [6.018083, 45.777559], [6.01828, 45.777571], [6.01847, 45.777584], [6.019042, 45.77762], [6.019147, 45.777624], [6.019238, 45.777624], [6.019352, 45.777612], [6.019484, 45.777577], [6.01957, 45.777539], [6.01964, 45.777498], [6.019686, 45.777468], [6.019745, 45.777416], [6.019786, 45.777362], [6.019817, 45.777315], [6.019845, 45.777259], [6.01986, 45.777208], [6.01987, 45.777143], [6.019855, 45.777024], [6.019672, 45.776311], [6.019635, 45.77617], [6.019615, 45.776083], [6.019614, 45.776009], [6.01962, 45.775953], [6.019633, 45.775899], [6.019647, 45.77585], [6.019676, 45.775799], [6.01971, 45.775756], [6.019747, 45.775717], [6.019809, 45.775667], [6.019876, 45.775623], [6.019952, 45.775583], [6.020103, 45.77551], [6.020397, 45.775384], [6.020489, 45.775345], [6.021021, 45.775119], [6.021839, 45.774746], [6.022305, 45.774452], [6.023042, 45.773987], [6.023496, 45.773715], [6.02359, 45.773659], [6.023715, 45.773577], [6.023805, 45.773514], [6.023889, 45.773439], [6.023954, 45.773365], [6.024009, 45.773292], [6.02404, 45.773226], [6.024063, 45.77314], [6.024062, 45.772879], [6.024043, 45.772662], [6.024022, 45.77244], [6.024013, 45.772341], [6.023988, 45.772069], [6.023983, 45.772019], [6.023835, 45.770343], [6.023855, 45.770287], [6.023884, 45.770241], [6.023923, 45.770198], [6.023963, 45.770163], [6.024014, 45.770127], [6.024085, 45.770092], [6.024176, 45.770056], [6.024261, 45.770037], [6.024585, 45.769995], [6.025345, 45.769899], [6.025987, 45.769816], [6.026917, 45.769691], [6.026914, 45.769675], [6.026878, 45.769473], [6.026865, 45.76942], [6.026816, 45.769219], [6.02677, 45.769032], [6.026707, 45.768772], [6.026719, 45.76862], [6.026734, 45.768512], [6.02675, 45.768354], [6.026761, 45.768276], [6.026822, 45.767858], [6.026945, 45.767508], [6.027016, 45.767335], [6.027094, 45.767169], [6.027299, 45.766946], [6.02723, 45.7669], [6.027204, 45.76685], [6.027194, 45.766789], [6.026692, 45.766695], [6.026486, 45.766513], [6.026185, 45.76602], [6.025832, 45.765758], [6.025603, 45.765622], [6.02527, 45.765468], [6.025042, 45.765276], [6.024468, 45.764795], [6.024429, 45.764762], [6.024158, 45.764546], [6.02365, 45.764141], [6.023582, 45.764086], [6.023453, 45.763983], [6.023321, 45.763878], [6.023222, 45.763799], [6.023008, 45.763493], [6.022922, 45.76337], [6.022766, 45.763237], [6.022754, 45.763227], [6.022544, 45.763049], [6.022977, 45.762678], [6.023086, 45.762584], [6.022889, 45.762102], [6.022891, 45.762077], [6.02287, 45.762048], [6.022566, 45.762013], [6.022428, 45.762009], [6.022263, 45.761985], [6.02211, 45.761957], [6.022092, 45.761954], [6.021924, 45.761916], [6.021772, 45.761862], [6.021265, 45.76174], [6.020917, 45.761655], [6.020253, 45.761492], [6.017415, 45.760808], [6.014777, 45.76018], [6.013663, 45.759873], [6.012506, 45.759561], [6.011579, 45.759299], [6.011062, 45.759133], [6.00842, 45.75829], [6.007869, 45.758114], [6.006064, 45.757537], [6.005515, 45.757366], [6.005257, 45.757273], [6.005002, 45.75716], [6.004443, 45.756874], [6.00429, 45.756785], [6.004129, 45.756673], [6.003875, 45.756445], [6.003308, 45.755919], [6.003154, 45.755776], [6.002814, 45.755457], [6.002633, 45.755288], [6.001787, 45.754497], [6.000741, 45.753518], [6.000657, 45.753439], [6.000298, 45.753159], [5.998494, 45.751769], [5.998353, 45.75166], [5.998185, 45.751546], [5.997998, 45.751418], [5.997922, 45.751382], [5.997791, 45.751319], [5.997596, 45.751243], [5.997528, 45.751224], [5.997366, 45.75118], [5.997133, 45.751138], [5.996464, 45.751078], [5.996053, 45.75104], [5.995856, 45.751021], [5.9956, 45.750992], [5.995369, 45.750949], [5.995149, 45.750887], [5.995022, 45.750842], [5.994698, 45.750725], [5.993759, 45.750365], [5.993454, 45.750245], [5.993195, 45.750146], [5.993108, 45.750112], [5.99305, 45.75009], [5.992851, 45.749996], [5.992649, 45.749888], [5.992502, 45.749799], [5.992399, 45.749763], [5.992302, 45.74971], [5.992127, 45.749612], [5.991905, 45.749437], [5.991848, 45.74937], [5.991725, 45.749295], [5.991201, 45.748947], [5.990846, 45.748719], [5.990801, 45.748691], [5.990654, 45.748608], [5.990526, 45.74855], [5.9904, 45.748504], [5.990289, 45.748463], [5.990314, 45.748434], [5.990367, 45.748373], [5.990536, 45.748275], [5.990653, 45.748183], [5.990726, 45.748013], [5.990843, 45.747741], [5.99083, 45.747562], [5.990811, 45.74734], [5.990779, 45.747211], [5.990776, 45.747096], [5.990797, 45.747009], [5.990846, 45.746924], [5.990866, 45.746903], [5.991007, 45.746756], [5.991204, 45.746612], [5.991569, 45.746323], [5.991795, 45.746121], [5.991936, 45.745995], [5.992049, 45.745894], [5.992291, 45.745653], [5.992542, 45.745403], [5.993005, 45.744944], [5.99387, 45.744319], [5.994029, 45.7442], [5.99445, 45.743887], [5.994525, 45.743803], [5.994742, 45.743558], [5.994972, 45.743276], [5.995316, 45.74276], [5.995448, 45.742545], [5.995571, 45.742389], [5.995725, 45.742274], [5.995875, 45.742182], [5.996228, 45.742005], [5.996363, 45.741913], [5.996452, 45.741834], [5.996487, 45.741762], [5.996487, 45.741699], [5.996474, 45.74162], [5.996332, 45.741383], [5.996157, 45.741101], [5.996102, 45.740841], [5.996146, 45.740582], [5.996233, 45.740322], [5.996266, 45.740078], [5.996211, 45.739788], [5.996211, 45.73962], [5.996332, 45.739307], [5.996408, 45.739078], [5.996429, 45.738991], [5.99643, 45.738898], [5.996416, 45.738812], [5.996368, 45.738714], [5.996285, 45.738617], [5.996159, 45.738496], [5.996119, 45.738431], [5.996087, 45.738369], [5.996085, 45.738287], [5.996095, 45.738181], [5.996135, 45.738084], [5.996277, 45.737986], [5.996457, 45.737935], [5.996652, 45.737885], [5.996838, 45.737829], [5.997016, 45.737761], [5.997191, 45.737667], [5.997432, 45.737495], [5.997522, 45.73743], [5.99801, 45.737212], [5.998398, 45.737061], [5.998654, 45.736969], [5.998904, 45.736863], [5.999199, 45.736738], [5.999347, 45.736663], [5.99953, 45.736572], [5.99979, 45.736366], [5.999844, 45.736328], [5.999908, 45.736283], [6.000047, 45.736186], [6.000211, 45.736082], [6.000643, 45.73582], [6.001102, 45.735556], [6.001151, 45.735527], [6.001519, 45.73544], [6.001955, 45.735353], [6.001988, 45.735347], [6.002182, 45.735308], [6.002848, 45.735175], [6.002836, 45.735098], [6.002825, 45.735039], [6.002784, 45.734891], [6.002801, 45.734793], [6.00293, 45.734672], [6.002967, 45.734636]], "type": "LineString"}}